CTC1_L_00266001-01
1 17179U 25047ND  26070.40834491  .00000000  00000+0  00000-0 0  9990
2 17179  90.0000   0.0000 0000000   0.0000   0.0000 15.38683946    10
CTC1_L_00266001-02
1 17180U 26613NH  26070.40834491  .00000000  00000+0  00000-0 0  9992
2 17180  90.0000   0.0000 0000000   0.0000  90.0000 15.38683946    11
CTC1_L_00266001-03
1 17181U 26341NQ  26070.40834491  .00000000  00000+0  00000-0 0  9991
2 17181  90.0000   0.0000 0000000   0.0000 180.0000 15.38683946    12
CTC1_L_00266001-04
1 17182U 25287TR  26070.40834491  .00000000  00000+0  00000-0 0  9990
2 17182  90.0000   0.0000 0000000   0.0000 270.0000 15.38683946    13
CTC1_L_00266002-01
1 17183U 24972HS  26070.40834491  .00000000  00000+0  00000-0 0  9991
2 17183  90.0000  12.0000 0000000   0.0000  12.0000 15.38683946    11
CTC1_L_00266002-02
1 17184U 22732ZS  26070.40834491  .00000000  00000+0  00000-0 0  9994
2 17184  90.0000  12.0000 0000000   0.0000 102.0000 15.38683946    12
CTC1_L_00266002-03
1 17185U 22654NK  26070.40834491  .00000000  00000+0  00000-0 0  9998
2 17185  90.0000  12.0000 0000000   0.0000 192.0000 15.38683946    12
CTC1_L_00266002-04
1 17186U 25880BG  26070.40834491  .00000000  00000+0  00000-0 0  9993
2 17186  90.0000  12.0000 0000000   0.0000 282.0000 15.38683946    13
CTC1_L_00266003-01
1 17187U 22775U   26070.40834491  .00000000  00000+0  00000-0 0  9994
2 17187  90.0000  24.0000 0000000   0.0000  24.0000 15.38683946    11
CTC1_L_00266003-02
1 17188U 26681SB  26070.40834491  .00000000  00000+0  00000-0 0  9995
2 17188  90.0000  24.0000 0000000   0.0000 114.0000 15.38683946    12
CTC1_L_00266003-03
1 17189U 26843JH  26070.40834491  .00000000  00000+0  00000-0 0  9996
2 17189  90.0000  24.0000 0000000   0.0000 204.0000 15.38683946    13
CTC1_L_00266003-04
1 17190U 22588LV  26070.40834491  .00000000  00000+0  00000-0 0  9990
2 17190  90.0000  24.0000 0000000   0.0000 294.0000 15.38683946    14
CTC1_L_00266004-01
1 17191U 26077MT  26070.40834491  .00000000  00000+0  00000-0 0  9998
2 17191  90.0000  36.0000 0000000   0.0000  36.0000 15.38683946    12
CTC1_L_00266004-02
1 17192U 24449NT  26070.40834491  .00000000  00000+0  00000-0 0  9990
2 17192  90.0000  36.0000 0000000   0.0000 126.0000 15.38683946    13
CTC1_L_00266004-03
1 17193U 26549XC  26070.40834491  .00000000  00000+0  00000-0 0  9994
2 17193  90.0000  36.0000 0000000   0.0000 216.0000 15.38683946    14
CTC1_L_00266004-04
1 17194U 22698MI  26070.40834491  .00000000  00000+0  00000-0 0  9996
2 17194  90.0000  36.0000 0000000   0.0000 306.0000 15.38683946    15
CTC1_L_00266005-01
1 17195U 24301CV  26070.40834491  .00000000  00000+0  00000-0 0  9990
2 17195  90.0000  48.0000 0000000   0.0000  48.0000 15.38683946    12
CTC1_L_00266005-02
1 17196U 26198EI  26070.40834491  .00000000  00000+0  00000-0 0  9997
2 17196  90.0000  48.0000 0000000   0.0000 138.0000 15.38683946    13
CTC1_L_00266005-03
1 17197U 23263WJ  26070.40834491  .00000000  00000+0  00000-0 0  9998
2 17197  90.0000  48.0000 0000000   0.0000 228.0000 15.38683946    14
CTC1_L_00266005-04
1 17198U 24480YA  26070.40834491  .00000000  00000+0  00000-0 0  9991
2 17198  90.0000  48.0000 0000000   0.0000 318.0000 15.38683946    15
CTC1_L_00266006-01
1 17199U 26192FN  26070.40834491  .00000000  00000+0  00000-0 0  9994
2 17199  90.0000  60.0000 0000000   0.0000  60.0000 15.38683946    14
CTC1_L_00266006-02
1 17200U 22890U   26070.40834491  .00000000  00000+0  00000-0 0  9998
2 17200  90.0000  60.0000 0000000   0.0000 150.0000 15.38683946    17
CTC1_L_00266006-03
1 17201U 26086XT  26070.40834491  .00000000  00000+0  00000-0 0  9990
2 17201  90.0000  60.0000 0000000   0.0000 240.0000 15.38683946    18
CTC1_L_00266006-04
1 17202U 22074BR  26070.40834491  .00000000  00000+0  00000-0 0  9994
2 17202  90.0000  60.0000 0000000   0.0000 330.0000 15.38683946    19
CTC1_L_00266007-01
1 17203U 22004DA  26070.40834491  .00000000  00000+0  00000-0 0  9998
2 17203  90.0000  72.0000 0000000   0.0000  72.0000 15.38683946    16
CTC1_L_00266007-02
1 17204U 25912KN  26070.40834491  .00000000  00000+0  00000-0 0  9990
2 17204  90.0000  72.0000 0000000   0.0000 162.0000 15.38683946    17
CTC1_L_00266007-03
1 17205U 25826NU  26070.40834491  .00000000  00000+0  00000-0 0  9995
2 17205  90.0000  72.0000 0000000   0.0000 252.0000 15.38683946    18
CTC1_L_00266007-04
1 17206U 25870AF  26070.40834491  .00000000  00000+0  00000-0 0  9995
2 17206  90.0000  72.0000 0000000   0.0000 342.0000 15.38683946    19
CTC1_L_00266008-01
1 17207U 24014PH  26070.40834491  .00000000  00000+0  00000-0 0  9995
2 17207  90.0000  84.0000 0000000   0.0000  84.0000 15.38683946    16
CTC1_L_00266008-02
1 17208U 22018MY  26070.40834491  .00000000  00000+0  00000-0 0  9998
2 17208  90.0000  84.0000 0000000   0.0000 174.0000 15.38683946    17
CTC1_L_00266008-03
1 17209U 25175TI  26070.40834491  .00000000  00000+0  00000-0 0  9996
2 17209  90.0000  84.0000 0000000   0.0000 264.0000 15.38683946    18
CTC1_L_00266008-04
1 17210U 25124YE  26070.40834491  .00000000  00000+0  00000-0 0  9992
2 17210  90.0000  84.0000 0000000   0.0000 354.0000 15.38683946    10
CTC1_L_00266009-01
1 17211U 22418KZ  26070.40834491  .00000000  00000+0  00000-0 0  9996
2 17211  90.0000  96.0000 0000000   0.0000  96.0000 15.38683946    17
CTC1_L_00266009-02
1 17212U 24046I   26070.40834491  .00000000  00000+0  00000-0 0  9996
2 17212  90.0000  96.0000 0000000   0.0000 186.0000 15.38683946    18
CTC1_L_00266009-03
1 17213U 23171KA  26070.40834491  .00000000  00000+0  00000-0 0  9995
2 17213  90.0000  96.0000 0000000   0.0000 276.0000 15.38683946    19
CTC1_L_00266009-04
1 17214U 23600JJ  26070.40834491  .00000000  00000+0  00000-0 0  9993
2 17214  90.0000  96.0000 0000000   0.0000   6.0000 15.38683946    11
CTC1_L_00266010-01
1 17215U 24191RT  26070.40834491  .00000000  00000+0  00000-0 0  9990
2 17215  90.0000 108.0000 0000000   0.0000 108.0000 15.38683946    19
CTC1_L_00266010-02
1 17216U 26312BD  26070.40834491  .00000000  00000+0  00000-0 0  9998
2 17216  90.0000 108.0000 0000000   0.0000 198.0000 15.38683946    19
CTC1_L_00266010-03
1 17217U 26832OV  26070.40834491  .00000000  00000+0  00000-0 0  9996
2 17217  90.0000 108.0000 0000000   0.0000 288.0000 15.38683946    10
CTC1_L_00266010-04
1 17218U 25798LF  26070.40834491  .00000000  00000+0  00000-0 0  9997
2 17218  90.0000 108.0000 0000000   0.0000  18.0000 15.38683946    12
CTC1_L_00266011-01
1 17219U 25255TQ  26070.40834491  .00000000  00000+0  00000-0 0  9996
2 17219  90.0000 120.0000 0000000   0.0000 120.0000 15.38683946    11
CTC1_L_00266011-02
1 17220U 25059IK  26070.40834491  .00000000  00000+0  00000-0 0  9990
2 17220  90.0000 120.0000 0000000   0.0000 210.0000 15.38683946    13
CTC1_L_00266011-03
1 17221U 23854SY  26070.40834491  .00000000  00000+0  00000-0 0  9992
2 17221  90.0000 120.0000 0000000   0.0000 300.0000 15.38683946    14
CTC1_L_00266011-04
1 17222U 25702RN  26070.40834491  .00000000  00000+0  00000-0 0  9997
2 17222  90.0000 120.0000 0000000   0.0000  30.0000 15.38683946    15
CTC1_L_00266012-01
1 17223U 25723QI  26070.40834491  .00000000  00000+0  00000-0 0  9991
2 17223  90.0000 132.0000 0000000   0.0000 132.0000 15.38683946    12
CTC1_L_00266012-02
1 17224U 22799FF  26070.40834491  .00000000  00000+0  00000-0 0  9992
2 17224  90.0000 132.0000 0000000   0.0000 222.0000 15.38683946    13
CTC1_L_00266012-03
1 17225U 22033O   26070.40834491  .00000000  00000+0  00000-0 0  9994
2 17225  90.0000 132.0000 0000000   0.0000 312.0000 15.38683946    14
CTC1_L_00266012-04
1 17226U 22821YA  26070.40834491  .00000000  00000+0  00000-0 0  9990
2 17226  90.0000 132.0000 0000000   0.0000  42.0000 15.38683946    15
CTC1_L_00266013-01
1 17227U 23056HJ  26070.40834491  .00000000  00000+0  00000-0 0  9992
2 17227  90.0000 144.0000 0000000   0.0000 144.0000 15.38683946    12
CTC1_L_00266013-02
1 17228U 24599OB  26070.40834491  .00000000  00000+0  00000-0 0  9996
2 17228  90.0000 144.0000 0000000   0.0000 234.0000 15.38683946    13
CTC1_L_00266013-03
1 17229U 25806YK  26070.40834491  .00000000  00000+0  00000-0 0  9999
2 17229  90.0000 144.0000 0000000   0.0000 324.0000 15.38683946    14
CTC1_L_00266013-04
1 17230U 23203AB  26070.40834491  .00000000  00000+0  00000-0 0  9990
2 17230  90.0000 144.0000 0000000   0.0000  54.0000 15.38683946    16
CTC1_L_00266014-01
1 17231U 23648RK  26070.40834491  .00000000  00000+0  00000-0 0  9994
2 17231  90.0000 156.0000 0000000   0.0000 156.0000 15.38683946    13
CTC1_L_00266014-02
1 17232U 23786MG  26070.40834491  .00000000  00000+0  00000-0 0  9998
2 17232  90.0000 156.0000 0000000   0.0000 246.0000 15.38683946    14
CTC1_L_00266014-03
1 17233U 23558GZ  26070.40834491  .00000000  00000+0  00000-0 0  9996
2 17233  90.0000 156.0000 0000000   0.0000 336.0000 15.38683946    15
CTC1_L_00266014-04
1 17234U 24814LW  26070.40834491  .00000000  00000+0  00000-0 0  9993
2 17234  90.0000 156.0000 0000000   0.0000  66.0000 15.38683946    16
CTC1_L_00266015-01
1 17235U 25852HS  26070.40834491  .00000000  00000+0  00000-0 0  9997
2 17235  90.0000 168.0000 0000000   0.0000 168.0000 15.38683946    13
CTC1_L_00266015-02
1 17236U 22472DE  26070.40834491  .00000000  00000+0  00000-0 0  9993
2 17236  90.0000 168.0000 0000000   0.0000 258.0000 15.38683946    14
CTC1_L_00266015-03
1 17237U 26577KH  26070.40834491  .00000000  00000+0  00000-0 0  9994
2 17237  90.0000 168.0000 0000000   0.0000 348.0000 15.38683946    15
CTC1_L_00266015-04
1 17238U 23137CR  26070.40834491  .00000000  00000+0  00000-0 0  9994
2 17238  90.0000 168.0000 0000000   0.0000  78.0000 15.38683946    16
CTC1_L_00266016-01
1 17239U 22566RF  26070.40834491  .00000000  00000+0  00000-0 0  9990
2 17239  90.0000 180.0000 0000000   0.0000 180.0000 15.38683946    15
CTC1_L_00266016-02
1 17240U 25794TU  26070.40834491  .00000000  00000+0  00000-0 0  9998
2 17240  90.0000 180.0000 0000000   0.0000 270.0000 15.38683946    17
